{"fetchedAt":"2026-06-29T18:07:57.270Z","satellites":[{"id":"37210","name":"BEIDOU-2 G4 (C04)","constellationId":"beidou","omm":{"OBJECT_NAME":"BEIDOU-2 G4 (C04)","OBJECT_ID":"2010-057A","EPOCH":"2026-06-29T12:20:38.625216","MEAN_MOTION":1.00271614,"ECCENTRICITY":0.0004793,"INCLINATION":3.6768,"RA_OF_ASC_NODE":68.8782,"ARG_OF_PERICENTER":190.3034,"MEAN_ANOMALY":3.5548,"EPHEMERIS_TYPE":0,"CLASSIFICATION_TYPE":"U","NORAD_CAT_ID":37210,"ELEMENT_SET_NO":999,"REV_AT_EPOCH":5741,"BSTAR":0,"MEAN_MOTION_DOT":-0.00000105,"MEAN_MOTION_DDOT":0}},{"id":"37256","name":"BEIDOU-2 IGSO-2 (C07)","constellationId":"beidou","omm":{"OBJECT_NAME":"BEIDOU-2 IGSO-2 (C07)","OBJECT_ID":"2010-068A","EPOCH":"2026-06-28T16:23:51.446976","MEAN_MOTION":1.00280165,"ECCENTRICITY":0.00563459,"INCLINATION":47.5257,"RA_OF_ASC_NODE":271.6882,"ARG_OF_PERICENTER":213.6566,"MEAN_ANOMALY":145.5786,"EPHEMERIS_TYPE":0,"CLASSIFICATION_TYPE":"U","NORAD_CAT_ID":37256,"ELEMENT_SET_NO":999,"REV_AT_EPOCH":5690,"BSTAR":0,"MEAN_MOTION_DOT":-0.00000195,"MEAN_MOTION_DDOT":0}},{"id":"37384","name":"BEIDOU-2 IGSO-3 (C08)","constellationId":"beidou","omm":{"OBJECT_NAME":"BEIDOU-2 IGSO-3 (C08)","OBJECT_ID":"2011-013A","EPOCH":"2026-06-29T12:55:31.507968","MEAN_MOTION":1.00265262,"ECCENTRICITY":0.0035201,"INCLINATION":62.4244,"RA_OF_ASC_NODE":40.0349,"ARG_OF_PERICENTER":183.8161,"MEAN_ANOMALY":354.9022,"EPHEMERIS_TYPE":0,"CLASSIFICATION_TYPE":"U","NORAD_CAT_ID":37384,"ELEMENT_SET_NO":999,"REV_AT_EPOCH":5578,"BSTAR":0,"MEAN_MOTION_DOT":-0.00000164,"MEAN_MOTION_DDOT":0}},{"id":"37763","name":"BEIDOU-2 IGSO-4 (C09)","constellationId":"beidou","omm":{"OBJECT_NAME":"BEIDOU-2 IGSO-4 (C09)","OBJECT_ID":"2011-038A","EPOCH":"2026-06-28T22:39:21.811680","MEAN_MOTION":1.00283415,"ECCENTRICITY":0.01596942,"INCLINATION":54.6034,"RA_OF_ASC_NODE":165.5678,"ARG_OF_PERICENTER":231.4501,"MEAN_ANOMALY":313.7115,"EPHEMERIS_TYPE":0,"CLASSIFICATION_TYPE":"U","NORAD_CAT_ID":37763,"ELEMENT_SET_NO":999,"REV_AT_EPOCH":5476,"BSTAR":0,"MEAN_MOTION_DOT":1.7e-7,"MEAN_MOTION_DDOT":0}},{"id":"37948","name":"BEIDOU-2 IGSO-5 (C10)","constellationId":"beidou","omm":{"OBJECT_NAME":"BEIDOU-2 IGSO-5 (C10)","OBJECT_ID":"2011-073A","EPOCH":"2026-06-24T15:46:07.226112","MEAN_MOTION":1.00272136,"ECCENTRICITY":0.01142233,"INCLINATION":47.6633,"RA_OF_ASC_NODE":271.4526,"ARG_OF_PERICENTER":222.0346,"MEAN_ANOMALY":107.535,"EPHEMERIS_TYPE":0,"CLASSIFICATION_TYPE":"U","NORAD_CAT_ID":37948,"ELEMENT_SET_NO":999,"REV_AT_EPOCH":5320,"BSTAR":0,"MEAN_MOTION_DOT":-0.00000196,"MEAN_MOTION_DDOT":0}},{"id":"38091","name":"BEIDOU-2 G5 (C05)","constellationId":"beidou","omm":{"OBJECT_NAME":"BEIDOU-2 G5 (C05)","OBJECT_ID":"2012-008A","EPOCH":"2026-06-28T23:39:29.352960","MEAN_MOTION":1.00276642,"ECCENTRICITY":0.00085197,"INCLINATION":3.6028,"RA_OF_ASC_NODE":69.6321,"ARG_OF_PERICENTER":275.8995,"MEAN_ANOMALY":345.1785,"EPHEMERIS_TYPE":0,"CLASSIFICATION_TYPE":"U","NORAD_CAT_ID":38091,"ELEMENT_SET_NO":999,"REV_AT_EPOCH":5248,"BSTAR":0,"MEAN_MOTION_DOT":6.4e-7,"MEAN_MOTION_DDOT":0}},{"id":"38250","name":"BEIDOU-2 M3 (C11)","constellationId":"beidou","omm":{"OBJECT_NAME":"BEIDOU-2 M3 (C11)","OBJECT_ID":"2012-018A","EPOCH":"2026-06-29T00:02:32.565984","MEAN_MOTION":1.86230042,"ECCENTRICITY":0.0020334,"INCLINATION":55.7467,"RA_OF_ASC_NODE":304.4763,"ARG_OF_PERICENTER":273.2748,"MEAN_ANOMALY":86.4903,"EPHEMERIS_TYPE":0,"CLASSIFICATION_TYPE":"U","NORAD_CAT_ID":38250,"ELEMENT_SET_NO":999,"REV_AT_EPOCH":9616,"BSTAR":0,"MEAN_MOTION_DOT":-8.4e-7,"MEAN_MOTION_DDOT":0}},{"id":"38251","name":"BEIDOU-2 M4 (C12)","constellationId":"beidou","omm":{"OBJECT_NAME":"BEIDOU-2 M4 (C12)","OBJECT_ID":"2012-018B","EPOCH":"2026-06-27T20:38:38.167008","MEAN_MOTION":1.86229628,"ECCENTRICITY":0.00115226,"INCLINATION":55.6479,"RA_OF_ASC_NODE":303.728,"ARG_OF_PERICENTER":274.3517,"MEAN_ANOMALY":85.5111,"EPHEMERIS_TYPE":0,"CLASSIFICATION_TYPE":"U","NORAD_CAT_ID":38251,"ELEMENT_SET_NO":999,"REV_AT_EPOCH":9614,"BSTAR":0,"MEAN_MOTION_DOT":-9.2e-7,"MEAN_MOTION_DDOT":0}},{"id":"38775","name":"BEIDOU-2 M6 (C14)","constellationId":"beidou","omm":{"OBJECT_NAME":"BEIDOU-2 M6 (C14)","OBJECT_ID":"2012-050B","EPOCH":"2026-06-25T23:00:55.897920","MEAN_MOTION":1.86231117,"ECCENTRICITY":0.0013516,"INCLINATION":56.5518,"RA_OF_ASC_NODE":62.6042,"ARG_OF_PERICENTER":358.2268,"MEAN_ANOMALY":1.8099,"EPHEMERIS_TYPE":0,"CLASSIFICATION_TYPE":"U","NORAD_CAT_ID":38775,"ELEMENT_SET_NO":999,"REV_AT_EPOCH":9347,"BSTAR":0,"MEAN_MOTION_DOT":-8.9e-7,"MEAN_MOTION_DDOT":0}},{"id":"38953","name":"BEIDOU-2 G6 (C02)","constellationId":"beidou","omm":{"OBJECT_NAME":"BEIDOU-2 G6 (C02)","OBJECT_ID":"2012-059A","EPOCH":"2026-06-28T23:42:21.677760","MEAN_MOTION":1.00271113,"ECCENTRICITY":0.00096159,"INCLINATION":4.4509,"RA_OF_ASC_NODE":73.4021,"ARG_OF_PERICENTER":329.2064,"MEAN_ANOMALY":314.0896,"EPHEMERIS_TYPE":0,"CLASSIFICATION_TYPE":"U","NORAD_CAT_ID":38953,"ELEMENT_SET_NO":999,"REV_AT_EPOCH":5002,"BSTAR":0,"MEAN_MOTION_DOT":-0.00000168,"MEAN_MOTION_DDOT":0}},{"id":"40549","name":"BEIDOU-3S IGSO-1S (C31)","constellationId":"beidou","omm":{"OBJECT_NAME":"BEIDOU-3S IGSO-1S (C31)","OBJECT_ID":"2015-019A","EPOCH":"2026-06-27T19:18:18.518400","MEAN_MOTION":1.00249344,"ECCENTRICITY":0.00390983,"INCLINATION":49.1741,"RA_OF_ASC_NODE":295.3331,"ARG_OF_PERICENTER":191.808,"MEAN_ANOMALY":168.8013,"EPHEMERIS_TYPE":0,"CLASSIFICATION_TYPE":"U","NORAD_CAT_ID":40549,"ELEMENT_SET_NO":999,"REV_AT_EPOCH":4118,"BSTAR":0,"MEAN_MOTION_DOT":-0.00000163,"MEAN_MOTION_DDOT":0}},{"id":"40748","name":"BEIDOU-3S M2S (C58)","constellationId":"beidou","omm":{"OBJECT_NAME":"BEIDOU-3S M2S (C58)","OBJECT_ID":"2015-037A","EPOCH":"2026-06-28T14:22:59.380032","MEAN_MOTION":1.86232293,"ECCENTRICITY":0.00085671,"INCLINATION":54.8599,"RA_OF_ASC_NODE":301.6527,"ARG_OF_PERICENTER":258.3318,"MEAN_ANOMALY":101.5721,"EPHEMERIS_TYPE":0,"CLASSIFICATION_TYPE":"U","NORAD_CAT_ID":40748,"ELEMENT_SET_NO":999,"REV_AT_EPOCH":7433,"BSTAR":0,"MEAN_MOTION_DOT":-8.4e-7,"MEAN_MOTION_DDOT":0}},{"id":"40749","name":"BEIDOU-3S M1S (C57)","constellationId":"beidou","omm":{"OBJECT_NAME":"BEIDOU-3S M1S (C57)","OBJECT_ID":"2015-037B","EPOCH":"2026-06-27T04:40:16.991040","MEAN_MOTION":1.8625505,"ECCENTRICITY":0.00032195,"INCLINATION":54.858,"RA_OF_ASC_NODE":301.6893,"ARG_OF_PERICENTER":62.4123,"MEAN_ANOMALY":297.6156,"EPHEMERIS_TYPE":0,"CLASSIFICATION_TYPE":"U","NORAD_CAT_ID":40749,"ELEMENT_SET_NO":999,"REV_AT_EPOCH":7431,"BSTAR":0,"MEAN_MOTION_DOT":-9.6e-7,"MEAN_MOTION_DDOT":0}},{"id":"40938","name":"BEIDOU-3S IGSO-2S (C56)","constellationId":"beidou","omm":{"OBJECT_NAME":"BEIDOU-3S IGSO-2S (C56)","OBJECT_ID":"2015-053A","EPOCH":"2026-06-28T23:16:41.401632","MEAN_MOTION":1.00257545,"ECCENTRICITY":0.00656677,"INCLINATION":49.202,"RA_OF_ASC_NODE":258.6412,"ARG_OF_PERICENTER":193.1508,"MEAN_ANOMALY":268.933,"EPHEMERIS_TYPE":0,"CLASSIFICATION_TYPE":"U","NORAD_CAT_ID":40938,"ELEMENT_SET_NO":999,"REV_AT_EPOCH":3947,"BSTAR":0,"MEAN_MOTION_DOT":-9.9e-7,"MEAN_MOTION_DDOT":0}}]}